start=new Date('2023-03-17T00:00:00.000Z').valueOf();
sats=[{"REV_AT_EPOCH":"10009","BSTAR":"0.00098771000000","SEMIMAJOR_AXIS":"6925.247","PERIAPSIS":"546.446","APOAPSIS":"547.778","OBJECT_NAME":"STARLINK-2616","TLE_LINE1":"1 48695U 21044BK  23075.90246110  .00014474  00000-0  98771-3 0  9998","CLASSIFICATION_TYPE":"U","TIME_SYSTEM":"UTC","TLE_LINE2":"2 48695  53.0533 294.4275 0000962  85.6636 274.4463 15.06433190100099","OBJECT_ID":"2021-044BK","MEAN_MOTION_DDOT":"0.0000000000000","CENTER_NAME":"EARTH","DECAY_DATE":null,"MEAN_ANOMALY":"274.4463","MEAN_ELEMENT_THEORY":"SGP4","ELEMENT_SET_NO":"999","LAUNCH_DATE":"2021-05-26","RA_OF_ASC_NODE":"294.4275","OBJECT_TYPE":"PAYLOAD","COUNTRY_CODE":"US","MEAN_MOTION_DOT":"0.00014474","SITE":"AFETR","INCLINATION":"53.0533","EPHEMERIS_TYPE":"0","ECCENTRICITY":"0.00009620","REF_FRAME":"TEME","ARG_OF_PERICENTER":"85.6636","MEAN_MOTION":"15.06433190","NORAD_CAT_ID":"48695","RCS_SIZE":"LARGE","GP_ID":"228281701","EPOCH":"2023-03-16T21:39:32.639040","PERIOD":"95.590","FILE":"3862592"},{"REV_AT_EPOCH":"10002","BSTAR":"0.00150750000000","PERIAPSIS":"546.356","SEMIMAJOR_AXIS":"6925.183","APOAPSIS":"547.740","OBJECT_NAME":"STARLINK-2753","TLE_LINE1":"1 48696U 21044BL  23075.89278844  .00022277  00000-0  15075-2 0  9991","CLASSIFICATION_TYPE":"U","TIME_SYSTEM":"UTC","OBJECT_ID":"2021-044BL","TLE_LINE2":"2 48696  53.0522 299.4711 0000999  93.6152 266.4952 15.06453965100029","DECAY_DATE":null,"MEAN_ANOMALY":"266.4952","MEAN_ELEMENT_THEORY":"SGP4","ELEMENT_SET_NO":"999","MEAN_MOTION_DDOT":"0.0000000000000","CENTER_NAME":"EARTH","OBJECT_TYPE":"PAYLOAD","RA_OF_ASC_NODE":"299.4711","LAUNCH_DATE":"2021-05-26","COUNTRY_CODE":"US","MEAN_MOTION_DOT":"0.00022277","INCLINATION":"53.0522","SITE":"AFETR","MEAN_MOTION":"15.06453965","EPHEMERIS_TYPE":"0","ECCENTRICITY":"0.00009990","REF_FRAME":"TEME","ARG_OF_PERICENTER":"93.6152","PERIOD":"95.589","EPOCH":"2023-03-16T21:25:36.921216","NORAD_CAT_ID":"48696","RCS_SIZE":"LARGE","GP_ID":"228281953","FILE":"3862592"},{"COUNTRY_CODE":"US","MEAN_MOTION_DOT":"0.00018521","SITE":"AFETR","INCLINATION":"53.0529","CENTER_NAME":"EARTH","MEAN_MOTION_DDOT":"0.0000000000000","DECAY_DATE":null,"ELEMENT_SET_NO":"999","MEAN_ANOMALY":"271.8159","MEAN_ELEMENT_THEORY":"SGP4","RA_OF_ASC_NODE":"299.3003","LAUNCH_DATE":"2021-05-26","OBJECT_TYPE":"PAYLOAD","GP_ID":"228282703","RCS_SIZE":"LARGE","NORAD_CAT_ID":"48697","PERIOD":"95.589","EPOCH":"2023-03-16T22:08:03.715872","FILE":"3862592","ECCENTRICITY":"0.00008550","REF_FRAME":"TEME","ARG_OF_PERICENTER":"88.2928","EPHEMERIS_TYPE":"0","MEAN_MOTION":"15.06446974","SEMIMAJOR_AXIS":"6925.205","PERIAPSIS":"546.477","REV_AT_EPOCH":"10002","BSTAR":"0.00125740000000","TIME_SYSTEM":"UTC","CLASSIFICATION_TYPE":"U","TLE_LINE2":"2 48697  53.0529 299.3003 0000855  88.2928 271.8159 15.06446974100023","OBJECT_ID":"2021-044BM","OBJECT_NAME":"STARLINK-2715","APOAPSIS":"547.662","TLE_LINE1":"1 48697U 21044BM  23075.92226523  .00018521  00000-0  12574-2 0  9991"},{"SEMIMAJOR_AXIS":"6938.683","PERIAPSIS":"559.181","REV_AT_EPOCH":"9543","BSTAR":"-0.00016445000000","TIME_SYSTEM":"UTC","CLASSIFICATION_TYPE":"U","TLE_LINE2":"2 48879  97.5119 203.1988 0001970 105.1948 254.9495 15.02059600 95433","OBJECT_ID":"2021-059A","APOAPSIS":"561.915","OBJECT_NAME":"STARLINK-3003","TLE_LINE1":"1 48879U 21059A   23075.87985772 -.00002214  00000-0 -16445-3 0  9997","MEAN_MOTION_DOT":"-0.00002214","COUNTRY_CODE":"US","SITE":"AFETR","INCLINATION":"97.5119","MEAN_MOTION_DDOT":"0.0000000000000","CENTER_NAME":"EARTH","DECAY_DATE":null,"MEAN_ANOMALY":"254.9495","MEAN_ELEMENT_THEORY":"SGP4","ELEMENT_SET_NO":"999","RA_OF_ASC_NODE":"203.1988","LAUNCH_DATE":"2021-06-30","OBJECT_TYPE":"PAYLOAD","RCS_SIZE":"LARGE","NORAD_CAT_ID":"48879","GP_ID":"228281972","EPOCH":"2023-03-16T21:06:59.707008","PERIOD":"95.868","FILE":"3862592","EPHEMERIS_TYPE":"0","ECCENTRICITY":"0.00019700","ARG_OF_PERICENTER":"105.1948","REF_FRAME":"TEME","MEAN_MOTION":"15.02059600"},{"SEMIMAJOR_AXIS":"6938.710","PERIAPSIS":"559.129","BSTAR":"0.00004339800000","REV_AT_EPOCH":"9543","TLE_LINE2":"2 48880  97.5123 203.1970 0002084  95.2926 264.8537 15.02050807 95430","OBJECT_ID":"2021-059B","TIME_SYSTEM":"UTC","CLASSIFICATION_TYPE":"U","TLE_LINE1":"1 48880U 21059B   23075.87814215  .00000512  00000-0  43398-4 0  9997","APOAPSIS":"562.021","OBJECT_NAME":"STARLINK-3004","SITE":"AFETR","INCLINATION":"97.5123","COUNTRY_CODE":"US","MEAN_MOTION_DOT":"0.00000512","LAUNCH_DATE":"2021-06-30","RA_OF_ASC_NODE":"203.1970","OBJECT_TYPE":"PAYLOAD","MEAN_MOTION_DDOT":"0.0000000000000","CENTER_NAME":"EARTH","DECAY_DATE":null,"MEAN_ANOMALY":"264.8537","MEAN_ELEMENT_THEORY":"SGP4","ELEMENT_SET_NO":"999","FILE":"3862592","RCS_SIZE":"LARGE","NORAD_CAT_ID":"48880","GP_ID":"228282722","EPOCH":"2023-03-16T21:04:31.481760","PERIOD":"95.869","EPHEMERIS_TYPE":"0","ECCENTRICITY":"0.00020840","ARG_OF_PERICENTER":"95.2926","REF_FRAME":"TEME","MEAN_MOTION":"15.02050807"},{"BSTAR":"0.00035737000000","REV_AT_EPOCH":"9543","SEMIMAJOR_AXIS":"6938.691","PERIAPSIS":"560.031","TLE_LINE1":"1 48881U 21059C   23075.87387397  .00004633  00000-0  35737-3 0  9999","OBJECT_NAME":"STARLINK-3005","APOAPSIS":"561.082","TLE_LINE2":"2 48881  97.5121 203.2235 0000758  38.2902 321.8377 15.02056940 95431","OBJECT_ID":"2021-059C","CLASSIFICATION_TYPE":"U","TIME_SYSTEM":"UTC","RA_OF_ASC_NODE":"203.2235","LAUNCH_DATE":"2021-06-30","OBJECT_TYPE":"PAYLOAD","CENTER_NAME":"EARTH","MEAN_MOTION_DDOT":"0.0000000000000","DECAY_DATE":null,"MEAN_ELEMENT_THEORY":"SGP4","ELEMENT_SET_NO":"999","MEAN_ANOMALY":"321.8377","SITE":"AFETR","INCLINATION":"97.5121","MEAN_MOTION_DOT":"0.00004633","COUNTRY_CODE":"US","ARG_OF_PERICENTER":"38.2902","REF_FRAME":"TEME","ECCENTRICITY":"0.00007580","EPHEMERIS_TYPE":"0","MEAN_MOTION":"15.02056940","FILE":"3862365","GP_ID":"228254728","RCS_SIZE":"LARGE","NORAD_CAT_ID":"48881","PERIOD":"95.869","EPOCH":"2023-03-16T20:58:22.711008"},{"PERIAPSIS":"570.284","SEMIMAJOR_AXIS":"6950.206","REV_AT_EPOCH":"8386","BSTAR":"-0.00007918800000","TIME_SYSTEM":"UTC","CLASSIFICATION_TYPE":"U","OBJECT_ID":"2021-082B","TLE_LINE2":"2 49131  69.9998 119.8383 0002571 273.2387  86.8478 14.98325744 83863","OBJECT_NAME":"STARLINK-3096","APOAPSIS":"573.858","TLE_LINE1":"1 49131U 21082B   23075.83858638 -.00001038  00000-0 -79188-4 0  9998","COUNTRY_CODE":"US","MEAN_MOTION_DOT":"-0.00001038","INCLINATION":"69.9998","SITE":"AFWTR","MEAN_ELEMENT_THEORY":"SGP4","DECAY_DATE":null,"MEAN_ANOMALY":"86.8478","ELEMENT_SET_NO":"999","CENTER_NAME":"EARTH","MEAN_MOTION_DDOT":"0.0000000000000","OBJECT_TYPE":"PAYLOAD","LAUNCH_DATE":"2021-09-14","RA_OF_ASC_NODE":"119.8383","EPOCH":"2023-03-16T20:07:33.863232","PERIOD":"96.107","GP_ID":"228280997","RCS_SIZE":"LARGE","NORAD_CAT_ID":"49131","FILE":"3862592","MEAN_MOTION":"14.98325744","REF_FRAME":"TEME","ECCENTRICITY":"0.00025710","ARG_OF_PERICENTER":"273.2387","EPHEMERIS_TYPE":"0"},{"BSTAR":"-0.00028882000000","REV_AT_EPOCH":"8282","PERIAPSIS":"570.722","SEMIMAJOR_AXIS":"6950.155","TLE_LINE1":"1 49132U 21082C   23075.47079732 -.00003538  00000-0 -28882-3 0  9990","APOAPSIS":"573.318","OBJECT_NAME":"STARLINK-3090","OBJECT_ID":"2021-082C","TLE_LINE2":"2 49132  70.0019 160.7675 0001868 252.7960 107.2995 14.98342300 82821","CLASSIFICATION_TYPE":"U","TIME_SYSTEM":"UTC","OBJECT_TYPE":"PAYLOAD","RA_OF_ASC_NODE":"160.7675","LAUNCH_DATE":"2021-09-14","DECAY_DATE":null,"MEAN_ELEMENT_THEORY":"SGP4","ELEMENT_SET_NO":"999","MEAN_ANOMALY":"107.2995","MEAN_MOTION_DDOT":"0.0000000000000","CENTER_NAME":"EARTH","INCLINATION":"70.0019","SITE":"AFWTR","COUNTRY_CODE":"US","MEAN_MOTION_DOT":"-0.00003538","MEAN_MOTION":"14.98342300","EPHEMERIS_TYPE":"0","ECCENTRICITY":"0.00018680","REF_FRAME":"TEME","ARG_OF_PERICENTER":"252.7960","FILE":"3862295","PERIOD":"96.106","EPOCH":"2023-03-16T11:17:56.888448","NORAD_CAT_ID":"49132","RCS_SIZE":"LARGE","GP_ID":"228248543"},{"DECAY_DATE":null,"MEAN_ANOMALY":"91.3040","MEAN_ELEMENT_THEORY":"SGP4","ELEMENT_SET_NO":"999","CENTER_NAME":"EARTH","MEAN_MOTION_DDOT":"0.0000000000000","OBJECT_TYPE":"PAYLOAD","RA_OF_ASC_NODE":"160.6070","LAUNCH_DATE":"2021-09-14","COUNTRY_CODE":"US","MEAN_MOTION_DOT":"-0.00000869","INCLINATION":"70.0018","SITE":"AFWTR","MEAN_MOTION":"14.98329441","REF_FRAME":"TEME","ECCENTRICITY":"0.00027830","ARG_OF_PERICENTER":"268.7800","EPHEMERIS_TYPE":"0","PERIOD":"96.107","EPOCH":"2023-03-16T12:47:13.583040","GP_ID":"228259594","NORAD_CAT_ID":"49133","RCS_SIZE":"LARGE","FILE":"3862566","REV_AT_EPOCH":"8283","BSTAR":"-0.00006507000000","PERIAPSIS":"570.125","SEMIMAJOR_AXIS":"6950.195","OBJECT_NAME":"STARLINK-3077","APOAPSIS":"573.994","TLE_LINE1":"1 49133U 21082D   23075.53279610 -.00000869  00000-0 -65070-4 0  9990","TIME_SYSTEM":"UTC","CLASSIFICATION_TYPE":"U","OBJECT_ID":"2021-082D","TLE_LINE2":"2 49133  70.0018 160.6070 0002783 268.7800  91.3040 14.98329441 82832"},{"NORAD_CAT_ID":"49134","RCS_SIZE":"LARGE","GP_ID":"228259592","PERIOD":"96.104","EPOCH":"2023-03-16T22:17:09.319776","FILE":"3862566","EPHEMERIS_TYPE":"0","ARG_OF_PERICENTER":"271.8898","ECCENTRICITY":"0.00029460","REF_FRAME":"TEME","MEAN_MOTION":"14.98369192","COUNTRY_CODE":"US","MEAN_MOTION_DOT":"0.00014930","SITE":"AFWTR","INCLINATION":"70.0012","MEAN_MOTION_DDOT":"0.0000000000000","CENTER_NAME":"EARTH","DECAY_DATE":null,"ELEMENT_SET_NO":"999","MEAN_ELEMENT_THEORY":"SGP4","MEAN_ANOMALY":"88.1924","RA_OF_ASC_NODE":"159.6119","LAUNCH_DATE":"2021-09-14","OBJECT_TYPE":"PAYLOAD","TIME_SYSTEM":"UTC","CLASSIFICATION_TYPE":"U","TLE_LINE2":"2 49134  70.0012 159.6119 0002946 271.8898  88.1924 14.98369192 84094","OBJECT_ID":"2021-082E","APOAPSIS":"573.984","OBJECT_NAME":"STARLINK-3078","TLE_LINE1":"1 49134U 21082E   23075.92858009  .00014930  00000-0  12551-2 0  9995","SEMIMAJOR_AXIS":"6950.072","PERIAPSIS":"569.889","REV_AT_EPOCH":"8409","BSTAR":"0.00125510000000"}];
